#cP2015  7  1  0  0  0.00000000      96 ORBIT IGb08 HLM  IGS
## 1851 259200.00000000   900.00000000 57204 0.0000000000000
+   32   G01G02G03G04G05G06G07G08G09G10G11G12G13G14G15G16G17
+        G18G19G20G21G22G23G24G25G26G27G28G29G30G31G32  0  0
+          0  0  0  0  0  0  0  0  0  0  0  0  0  0  0  0  0
+          0  0  0  0  0  0  0  0  0  0  0  0  0  0  0  0  0
+          0  0  0  0  0  0  0  0  0  0  0  0  0  0  0  0  0
++         2  2  2  2  2  2  2  0  3  2  2  2  2  2  2  3  2
++         2  2  2  2  2  2  2  2  2  2  2  2  2  2  2  0  0
++         0  0  0  0  0  0  0  0  0  0  0  0  0  0  0  0  0
++         0  0  0  0  0  0  0  0  0  0  0  0  0  0  0  0  0
++         0  0  0  0  0  0  0  0  0  0  0  0  0  0  0  0  0
%c G  cc GPS ccc cccc cccc cccc cccc ccccc ccccc ccccc ccccc
%c cc cc ccc ccc cccc cccc cccc cccc ccccc ccccc ccccc ccccc
%f  1.2500000  1.025000000  0.00000000000  0.000000000000000
%f  0.0000000  0.000000000  0.00000000000  0.000000000000000
%i    0    0    0    0      0      0      0      0         0
%i    0    0    0    0      0      0      0      0         0
/* FINAL ORBIT COMBINATION FROM WEIGHTED AVERAGE OF:        
/* cod emr esa gfz grg jpl mit ngs sio                      
/* REFERENCED TO IGS TIME (IGST) AND TO WEIGHTED MEAN POLE: 
/* PCV:IGS08_1850 OL/AL:FES2004  NONE     Y  ORB:CMB CLK:CMB
*  2015  7  1  6 45  0.00000000
PG01 -13634.301319  20961.909515   8599.972521     -3.532667  5  5  3 102       
PG02  15914.225956   -151.097236 -20833.090929    575.457601  6  5  5 104       
PG03 -18322.525028  13457.087515 -13746.378996      0.889942  5  6  5  70       
PG04 -16285.229986  13513.703777  15557.403013    -22.626937  5  5  3 110       
PG05  26198.724703  -2024.771677  -4558.323889   -223.125344  5  6  5 110       
PG06   9893.433118  14334.525360 -20054.715914      6.601794  5  6  4  86       
PG07  -5317.886662  25253.450938   5461.148183    471.904247  3  9  5  92       
PG08 -17708.755189  -9012.347884 -17934.811171 999999.999999
PG09   2016.114675  20335.635850 -16963.122908   -175.900796  7  8  7 107       
PG10  15487.228415  11173.426128 -19016.312091   -180.901285  5  7  5 101       
PG11 -11620.787436  18188.131612  14870.460267   -588.538436  4  8  4 102       
PG12  20833.456461 -11108.237912 -12048.783644    306.082959     7  6 103       
PG13  18833.789075   6372.119060  17413.069497   -128.213394  3  8  4 106       
PG14 -14672.213555 -22155.880282   2204.799610     52.138589  7  9  7  82       
PG15  15365.411178  -6186.121899  20723.269172   -257.995115  6  5  6 102       
PG16 -26315.239813    154.083576  -4937.431379   -113.283419  7  8  3 125       
PG17  15630.150423  21562.480310   1819.850694   -178.256205  4  8  6 101       
PG18  -1229.738949 -16283.897308  21433.301045    413.667962  3  7  2  57       
PG19 -16143.558587   2059.650353  20882.175620   -514.779181  3  7  3  90       
PG20  20438.327473 -13557.859874  10156.948236    334.547965  3  5  6 103       
PG21   1833.345984 -25257.166961   8092.092705   -459.967288  4  8  6  47       
PG22 -14519.833042 -11717.483175  19201.178317    366.516487  4  7  3 114       
PG23  -8989.878470  12872.165700 -21219.020525   -118.235073  3  4  4 107       
PG24  14474.301802 -19174.668010  11125.971656     -0.549075  6  7  3  96       
PG25   8819.855683 -15362.496464 -19838.138415     -7.891506  5  6  7 102       
PG26 -21706.219395  -5769.547861 -14189.782139     -3.362010  5  7  4 115       
PG27 -20558.790813  -7745.460183  14989.547979      1.046717  3  5  4 111       
PG28   9393.248084  13208.179146  21680.319010    450.537754  4 10  6  97       
PG29    591.019480 -19321.216191 -18218.993102    619.846639  8  8  7 134       
PG30   2216.095632  21793.975892  14957.886133    -22.799572  3  6  4  92       
PG31 -11049.264080 -11319.496984 -21145.794735    311.244846  4  8  4 108       
PG32 -25671.185571   4875.846693  -2683.473698   -111.519705  4  6  5  87       
*  2015  7  1  7  0  0.00000000
PG01 -13521.342746  19799.711318  11156.087087     -3.532183  5  5  3 108       
PG02  15319.759581   2271.809809 -21186.798168    575.459852  7  5  5 111       
PG03 -19774.785188  13577.058380 -11425.446114      0.895082  5  6  5  79       
PG04 -15959.840590  11574.579948  17343.626364    -22.629141  5  5  3 110       
PG05  25611.796626  -1604.671404  -7265.214757   -223.121140  5  7  5 100       
PG06   9142.910417  16427.324821 -18765.021080      6.609384  5  6  4  68       
PG07  -5700.866616  25605.490011   2614.071327    471.906181  3  9  5  97       
PG08 -15679.579668  -9528.991475 -19485.172028 999999.999999
PG09    509.437231  18959.551883 -18593.096826   -175.903833  7  8  7 125       
PG10  13399.289990  11749.720361 -20203.857936   -180.901970  5  7  4  91       
PG11 -12019.570432  16291.100336  16602.078941   -588.540662  5  8  4 109       
PG12  22064.408627 -11167.501597  -9492.927770    306.085886     6  5  96       
PG13  19851.424682   7994.485207  15514.928826   -128.216563  4  9  4 108       
PG14 -14258.909589 -21994.655557   5023.697732     52.136129  6  9  7  93       
PG15  16989.088411  -4490.286537  19908.617706   -257.997259  5  6  6 104       
PG16 -25641.790619    -93.717419  -7709.040395   -113.279744  7  8  4 126       
PG17  15260.547197  21437.225209   4656.602869   -178.257114  5  8  7 109       
PG18   1054.248207 -16801.112046  21003.025756    413.670921  4  7  2  62       
PG19 -17534.761207    152.111924  19887.650770   -514.780168  1  7  3  90       
PG20  21525.295747 -13562.814252   7635.679136    334.550874  4  5  6  82       
PG21   2343.306422 -25842.012647   5413.789640   -459.970279  4  8  6  77       
PG22 -12398.839310 -12383.302264  20238.714387    366.520204  4  7  3 117       
PG23 -10709.081397  11080.057489 -21469.049140   -118.237264  3  4  4 104       
PG24  14312.575987 -17745.209182  13467.220524     -0.549844  5  6  3  92       
PG25  10957.391661 -15747.535387 -18397.350530     -7.895393  5  6  7 110       
PG26 -20055.453053  -6346.144692 -16227.342123     -3.365473  5  7  4 105       
PG27 -21518.356941  -9021.021208  12779.433826      1.049205  4  5  4 113       
PG28   7049.480965  13607.189375  22324.081309    450.540197  4 10  6 109       
PG29   2064.385969 -17729.513348 -19666.790456    619.848464  8  9  7 132       
PG30   1444.528930  23202.103606  12769.834071    -22.792938  2  6  4  88       
PG31 -10196.315906 -13561.162332 -20211.715134    311.243935  4  8  4 110       
PG32 -25862.794264   4562.018285    170.242706   -111.510743  5  6  5  91       
*  2015  7  1  7 15  0.00000000
PG01 -13401.388561  18361.721461  13517.680564     -3.531678  4  4  3 111       
PG02  14838.736576   4734.642972 -21162.646286    575.461760  7  5  4 110       
PG03 -20956.089064  13694.807589  -8908.071483      0.900217  5  5  4  89       
PG04 -15686.321102   9439.525785  18821.003273    -22.631356  5  5  3 119       
PG05  24761.916528  -1069.730137  -9848.604175   -223.117418  5  7  5 104       
PG06   8541.225528  18396.723624 -17152.508418      6.616969  6  5  4  91       
PG07  -5981.172687  25660.041230   -278.999555    471.908169  3  9  5 102       
PG08 -13531.945356 -10200.692819 -20707.827106 999999.999999
PG09  -1186.981592  17548.886862 -19903.108927   -175.906863  7  8  8 106       
PG10  11232.481498  12462.200745 -21058.220301   -180.903086  6  7  4 106       
PG11 -12514.020462  14229.886562  18035.463745   -588.542951  5  8  4 105       
PG12  22999.437929 -11223.182536  -6772.388525    306.088690  2  5  5  83       
PG13  20805.285636   9381.938687  13345.926306   -128.219681  5  9  3 111       
PG14 -13629.735851 -21623.014902   7757.392962     52.133450  6  9  7  77       
PG15  18605.722843  -2949.298469  18751.164545   -257.999084  5  7  6 105       
PG16 -24686.881293   -447.369481 -10351.137537   -113.276469  8  8  5 104       
PG17  14668.284804  21104.703374   7414.687669   -178.259059  5  8  7 107       
PG18   3251.471003 -17407.001270  20225.491191    413.673462  4  7  2  73       
PG19 -18936.561243  -1573.878564  18549.121465   -514.780782     7  4  92       
PG20  22336.731665 -13517.233416   4983.016985    334.554011  4  5  6  76       
PG21   2763.907072 -26151.167715   2641.810094   -459.973157  4  8  6  74       
PG22 -10218.479996 -13176.738147  20936.130454    366.523589  4  7  2 117       
PG23 -12517.022286   9373.621952 -21344.058118   -118.239511  3  4  5 101       
PG24  14168.006316 -16063.357820  15574.555195     -0.551090  5  6  2  90       
PG25  12898.797144 -16197.706001 -16640.705415     -7.899330  5  6  6 116       
PG26 -18231.106630  -7069.188653 -17985.872704     -3.369012  5  7  4 102       
PG27 -22353.805738 -10062.734424  10350.441661      1.051701  4  5  4 121       
PG28   4683.512417  14153.031375  22605.285643    450.542293  5 10  6 107       
PG29   3721.821704 -16114.363639 -20776.126512    619.850264  9  9  6 128       
PG30    825.462280  24399.992027  10361.105091    -22.786272  2  7  4  96       
PG31  -9497.688669 -15724.933882 -18923.067088    311.242550  4  8  4 119       
PG32 -25749.650295   4191.659471   3020.925858   -111.501930  5  7  4 102       
EOF
